start=new Date('2022-07-17T00:00:00.000Z').valueOf();
sats=[{"COUNTRY_CODE":"US","ECCENTRICITY":"0.00013600","RA_OF_ASC_NODE":"310.6804","ARG_OF_PERICENTER":"70.0667","TLE_LINE2":"2 48303  53.0550 310.6804 0001360  70.0667 290.0468 15.06406805 67429","MEAN_ELEMENT_THEORY":"SGP4","TIME_SYSTEM":"UTC","LAUNCH_DATE":"2021-04-29","ELEMENT_SET_NO":"999","MEAN_MOTION_DDOT":"0.0000000000000","FILE":"3515618","DECAY_DATE":null,"TLE_LINE1":"1 48303U 21036AD  22197.80411483 -.00000547  00000-0 -17806-4 0  9994","NORAD_CAT_ID":"48303","PERIAPSIS":"546.251","OBJECT_NAME":"STARLINK-2530","CLASSIFICATION_TYPE":"U","MEAN_MOTION":"15.06406805","OBJECT_ID":"2021-036AD","PERIOD":"95.592","GP_ID":"208270384","EPOCH":"2022-07-16T19:17:55.521312","SEMIMAJOR_AXIS":"6925.328","MEAN_MOTION_DOT":"-0.00000547","MEAN_ANOMALY":"290.0468","REV_AT_EPOCH":"6742","RCS_SIZE":"LARGE","REF_FRAME":"TEME","CENTER_NAME":"EARTH","INCLINATION":"53.0550","SITE":"AFETR","OBJECT_TYPE":"PAYLOAD","EPHEMERIS_TYPE":"0","BSTAR":"-0.00001780600000","APOAPSIS":"548.135"},{"SITE":"AFETR","INCLINATION":"53.0552","CENTER_NAME":"EARTH","REF_FRAME":"TEME","APOAPSIS":"548.276","EPHEMERIS_TYPE":"0","BSTAR":"0.00010617000000","OBJECT_TYPE":"PAYLOAD","OBJECT_ID":"2021-036AE","PERIOD":"95.593","MEAN_MOTION":"15.06390342","CLASSIFICATION_TYPE":"U","OBJECT_NAME":"STARLINK-2524","PERIAPSIS":"546.211","REV_AT_EPOCH":"6741","RCS_SIZE":"LARGE","MEAN_MOTION_DOT":"0.00001300","MEAN_ANOMALY":"288.4464","SEMIMAJOR_AXIS":"6925.378","EPOCH":"2022-07-16T17:38:27.049920","GP_ID":"208270635","FILE":"3515618","MEAN_MOTION_DDOT":"0.0000000000000","ELEMENT_SET_NO":"999","NORAD_CAT_ID":"48304","TLE_LINE1":"1 48304U 21036AE  22197.73503530  .00001300  00000-0  10617-3 0  9990","DECAY_DATE":null,"ARG_OF_PERICENTER":"71.6687","RA_OF_ASC_NODE":"310.9984","ECCENTRICITY":"0.00014910","COUNTRY_CODE":"US","LAUNCH_DATE":"2021-04-29","TIME_SYSTEM":"UTC","MEAN_ELEMENT_THEORY":"SGP4","TLE_LINE2":"2 48304  53.0552 310.9984 0001491  71.6687 288.4464 15.06390342 67412"},{"OBJECT_TYPE":"PAYLOAD","APOAPSIS":"548.351","BSTAR":"0.00020616000000","EPHEMERIS_TYPE":"0","REF_FRAME":"TEME","SITE":"AFETR","CENTER_NAME":"EARTH","INCLINATION":"53.0568","SEMIMAJOR_AXIS":"6925.360","EPOCH":"2022-07-16T14:20:41.588448","GP_ID":"208271375","RCS_SIZE":"LARGE","REV_AT_EPOCH":"6739","MEAN_MOTION_DOT":"0.00002790","MEAN_ANOMALY":"268.8946","OBJECT_NAME":"STARLINK-2519","PERIAPSIS":"546.099","PERIOD":"95.592","OBJECT_ID":"2021-036AF","MEAN_MOTION":"15.06396310","CLASSIFICATION_TYPE":"U","TLE_LINE1":"1 48305U 21036AF  22197.59770357  .00002790  00000-0  20616-3 0  9992","DECAY_DATE":null,"NORAD_CAT_ID":"48305","ELEMENT_SET_NO":"999","FILE":"3515618","MEAN_MOTION_DDOT":"0.0000000000000","MEAN_ELEMENT_THEORY":"SGP4","TLE_LINE2":"2 48305  53.0568 311.6117 0001626  91.2229 268.8946 15.06396310 67391","LAUNCH_DATE":"2021-04-29","TIME_SYSTEM":"UTC","COUNTRY_CODE":"US","ARG_OF_PERICENTER":"91.2229","RA_OF_ASC_NODE":"311.6117","ECCENTRICITY":"0.00016260"},{"EPOCH":"2022-07-16T17:27:49.740192","SEMIMAJOR_AXIS":"6925.322","GP_ID":"208270134","MEAN_ANOMALY":"289.9549","MEAN_MOTION_DOT":"0.00005523","RCS_SIZE":"LARGE","REV_AT_EPOCH":"6741","OBJECT_NAME":"STARLINK-2523","PERIAPSIS":"546.279","OBJECT_ID":"2021-036AG","PERIOD":"95.592","CLASSIFICATION_TYPE":"U","MEAN_MOTION":"15.06408723","OBJECT_TYPE":"PAYLOAD","EPHEMERIS_TYPE":"0","BSTAR":"0.00038927000000","APOAPSIS":"548.095","REF_FRAME":"TEME","SITE":"AFETR","CENTER_NAME":"EARTH","INCLINATION":"53.0549","TLE_LINE2":"2 48306  53.0549 311.0328 0001311  70.1582 289.9549 15.06408723 67416","MEAN_ELEMENT_THEORY":"SGP4","TIME_SYSTEM":"UTC","LAUNCH_DATE":"2021-04-29","COUNTRY_CODE":"US","RA_OF_ASC_NODE":"311.0328","ECCENTRICITY":"0.00013110","ARG_OF_PERICENTER":"70.1582","DECAY_DATE":null,"TLE_LINE1":"1 48306U 21036AG  22197.72765903  .00005523  00000-0  38927-3 0  9990","NORAD_CAT_ID":"48306","ELEMENT_SET_NO":"999","MEAN_MOTION_DDOT":"0.0000000000000","FILE":"3515618"},{"ARG_OF_PERICENTER":"90.8497","ECCENTRICITY":"0.00012960","RA_OF_ASC_NODE":"310.7591","COUNTRY_CODE":"US","LAUNCH_DATE":"2021-04-29","TIME_SYSTEM":"UTC","MEAN_ELEMENT_THEORY":"SGP4","TLE_LINE2":"2 48307  53.0541 310.7591 0001296  90.8497 269.2640 15.06406712 67423","FILE":"3515618","MEAN_MOTION_DDOT":"0.0000000000000","ELEMENT_SET_NO":"999","NORAD_CAT_ID":"48307","TLE_LINE1":"1 48307U 21036AH  22197.79031944  .00002839  00000-0  20939-3 0  9990","DECAY_DATE":null,"MEAN_MOTION":"15.06406712","CLASSIFICATION_TYPE":"U","PERIOD":"95.592","OBJECT_ID":"2021-036AH","PERIAPSIS":"546.295","OBJECT_NAME":"STARLINK-2528","RCS_SIZE":"LARGE","REV_AT_EPOCH":"6742","MEAN_MOTION_DOT":"0.00002839","MEAN_ANOMALY":"269.2640","GP_ID":"208269885","SEMIMAJOR_AXIS":"6925.328","EPOCH":"2022-07-16T18:58:03.599616","CENTER_NAME":"EARTH","INCLINATION":"53.0541","SITE":"AFETR","REF_FRAME":"TEME","APOAPSIS":"548.091","EPHEMERIS_TYPE":"0","BSTAR":"0.00020939000000","OBJECT_TYPE":"PAYLOAD"},{"COUNTRY_CODE":"US","ECCENTRICITY":"0.00016780","RA_OF_ASC_NODE":"311.0628","ARG_OF_PERICENTER":"61.2778","TLE_LINE2":"2 48308  53.0546 311.0628 0001678  61.2778 298.8380 15.06412097 67413","MEAN_ELEMENT_THEORY":"SGP4","TIME_SYSTEM":"UTC","LAUNCH_DATE":"2021-04-29","ELEMENT_SET_NO":"999","MEAN_MOTION_DDOT":"0.0000000000000","FILE":"3515618","DECAY_DATE":null,"TLE_LINE1":"1 48308U 21036AJ  22197.72029476  .00009160  00000-0  63283-3 0  9994","NORAD_CAT_ID":"48308","PERIAPSIS":"546.014","OBJECT_NAME":"STARLINK-2532","CLASSIFICATION_TYPE":"U","MEAN_MOTION":"15.06412097","PERIOD":"95.591","OBJECT_ID":"2021-036AJ","GP_ID":"208271135","EPOCH":"2022-07-16T17:17:13.467264","SEMIMAJOR_AXIS":"6925.311","MEAN_MOTION_DOT":"0.00009160","MEAN_ANOMALY":"298.8380","REV_AT_EPOCH":"6741","RCS_SIZE":"LARGE","REF_FRAME":"TEME","INCLINATION":"53.0546","CENTER_NAME":"EARTH","SITE":"AFETR","OBJECT_TYPE":"PAYLOAD","EPHEMERIS_TYPE":"0","BSTAR":"0.00063283000000","APOAPSIS":"548.339"},{"PERIAPSIS":"546.284","OBJECT_NAME":"STARLINK-2517","MEAN_MOTION":"15.06402682","CLASSIFICATION_TYPE":"U","OBJECT_ID":"2021-036AK","PERIOD":"95.592","GP_ID":"208270876","SEMIMAJOR_AXIS":"6925.340","EPOCH":"2022-07-16T17:11:54.684960","RCS_SIZE":"LARGE","REV_AT_EPOCH":"6741","MEAN_ANOMALY":"276.8697","MEAN_MOTION_DOT":"0.00004797","REF_FRAME":"TEME","INCLINATION":"53.0558","CENTER_NAME":"EARTH","SITE":"AFETR","OBJECT_TYPE":"PAYLOAD","APOAPSIS":"548.126","EPHEMERIS_TYPE":"0","BSTAR":"0.00034070000000","COUNTRY_CODE":"US","ARG_OF_PERICENTER":"83.2443","RA_OF_ASC_NODE":"311.0914","ECCENTRICITY":"0.00013300","MEAN_ELEMENT_THEORY":"SGP4","TLE_LINE2":"2 48309  53.0558 311.0914 0001330  83.2443 276.8697 15.06402682 67419","LAUNCH_DATE":"2021-04-29","TIME_SYSTEM":"UTC","ELEMENT_SET_NO":"999","FILE":"3515618","MEAN_MOTION_DDOT":"0.0000000000000","TLE_LINE1":"1 48309U 21036AK  22197.71660515  .00004797  00000-0  34070-3 0  9992","DECAY_DATE":null,"NORAD_CAT_ID":"48309"},{"CENTER_NAME":"EARTH","INCLINATION":"53.0562","SITE":"AFETR","REF_FRAME":"TEME","BSTAR":"0.00067165000000","EPHEMERIS_TYPE":"0","APOAPSIS":"548.159","OBJECT_TYPE":"PAYLOAD","CLASSIFICATION_TYPE":"U","MEAN_MOTION":"15.06411021","PERIOD":"95.591","OBJECT_ID":"2021-036AL","PERIAPSIS":"546.201","OBJECT_NAME":"STARLINK-2536","MEAN_MOTION_DOT":"0.00009740","MEAN_ANOMALY":"277.0187","RCS_SIZE":"LARGE","REV_AT_EPOCH":"6741","GP_ID":"208269635","EPOCH":"2022-07-16T17:06:36.823680","SEMIMAJOR_AXIS":"6925.315","MEAN_MOTION_DDOT":"0.0000000000000","FILE":"3515618","ELEMENT_SET_NO":"999","NORAD_CAT_ID":"48310","DECAY_DATE":null,"TLE_LINE1":"1 48310U 21036AL  22197.71292620  .00009740  00000-0  67165-3 0  9996","RA_OF_ASC_NODE":"311.1022","ECCENTRICITY":"0.00014140","ARG_OF_PERICENTER":"83.0963","COUNTRY_CODE":"US","TIME_SYSTEM":"UTC","LAUNCH_DATE":"2021-04-29","TLE_LINE2":"2 48310  53.0562 311.1022 0001414  83.0963 277.0187 15.06411021 67419","MEAN_ELEMENT_THEORY":"SGP4"},{"OBJECT_NAME":"STARLINK-2534","PERIAPSIS":"546.303","OBJECT_ID":"2021-036AM","PERIOD":"95.593","CLASSIFICATION_TYPE":"U","MEAN_MOTION":"15.06393714","EPOCH":"2022-07-16T17:01:17.639616","SEMIMAJOR_AXIS":"6925.368","GP_ID":"208270385","MEAN_ANOMALY":"265.9251","MEAN_MOTION_DOT":"0.00000352","RCS_SIZE":"LARGE","REV_AT_EPOCH":"6741","REF_FRAME":"TEME","SITE":"AFETR","CENTER_NAME":"EARTH","INCLINATION":"53.0550","OBJECT_TYPE":"PAYLOAD","BSTAR":"0.00004252600000","EPHEMERIS_TYPE":"0","APOAPSIS":"548.162","COUNTRY_CODE":"US","ECCENTRICITY":"0.00013420","RA_OF_ASC_NODE":"311.1115","ARG_OF_PERICENTER":"94.1891","TLE_LINE2":"2 48311  53.0550 311.1115 0001342  94.1891 265.9251 15.06393714 67419","MEAN_ELEMENT_THEORY":"SGP4","TIME_SYSTEM":"UTC","LAUNCH_DATE":"2021-04-29","ELEMENT_SET_NO":"999","MEAN_MOTION_DDOT":"0.0000000000000","FILE":"3515618","DECAY_DATE":null,"TLE_LINE1":"1 48311U 21036AM  22197.70923194  .00000352  00000-0  42526-4 0  9998","NORAD_CAT_ID":"48311"},{"REF_FRAME":"TEME","SITE":"AFETR","INCLINATION":"53.0549","CENTER_NAME":"EARTH","OBJECT_TYPE":"PAYLOAD","APOAPSIS":"548.148","EPHEMERIS_TYPE":"0","BSTAR":"0.00027072000000","OBJECT_NAME":"STARLINK-2061","PERIAPSIS":"546.231","OBJECT_ID":"2021-036AN","PERIOD":"95.592","MEAN_MOTION":"15.06407929","CLASSIFICATION_TYPE":"U","SEMIMAJOR_AXIS":"6925.324","EPOCH":"2022-07-16T16:55:58.719936","GP_ID":"208270636","REV_AT_EPOCH":"6741","RCS_SIZE":"LARGE","MEAN_MOTION_DOT":"0.00003754","MEAN_ANOMALY":"286.7394","ELEMENT_SET_NO":"999","FILE":"3515618","MEAN_MOTION_DDOT":"0.0000000000000","TLE_LINE1":"1 48312U 21036AN  22197.70554074  .00003754  00000-0  27072-3 0  9993","DECAY_DATE":null,"NORAD_CAT_ID":"48312","COUNTRY_CODE":"US","ARG_OF_PERICENTER":"73.3747","RA_OF_ASC_NODE":"311.1368","ECCENTRICITY":"0.00013840","MEAN_ELEMENT_THEORY":"SGP4","TLE_LINE2":"2 48312  53.0549 311.1368 0001384  73.3747 286.7394 15.06407929 67416","LAUNCH_DATE":"2021-04-29","TIME_SYSTEM":"UTC"}];
